GLOBALSTAR M075         
1 37192U 10054E   25217.57030590 -.00000091  00000+0  69057-4 0  9999
2 37192  51.9961  31.1759 0000839  86.3461 315.2725 12.62266464682616
GLOBALSTAR M073         
1 37193U 10054F   25217.56391884 -.00000088  00000+0  87155-4 0  9990
2 37193  52.0074 305.0545 0000721 104.4133 268.6696 12.62261497684125
GLOBALSTAR M083         
1 37739U 11033A   25216.82049973 -.00000089  00000+0  79711-4 0  9991
2 37739  51.9849 255.9841 0000268  92.2894  78.8963 12.62275144652997
GLOBALSTAR M088         
1 37740U 11033B   25217.15487727 -.00000114  00000+0 -56165-4 0  9991
2 37740  52.0204 160.6227 0000313  31.0532 341.4712 12.62267026648870
GLOBALSTAR M091         
1 37741U 11033C   25217.19974719 -.00000112  00000+0 -44001-4 0  9992
2 37741  51.9993 123.9177 0000656  28.2792 129.1586 12.62269594649633
GLOBALSTAR M085         
1 37742U 11033D   25217.10997537 -.00000103  00000+0  67331-5 0  9998
2 37742  52.0127  75.2066 0000807  51.3409 118.3219 12.62263956650362
GLOBALSTAR M081         
1 37743U 11033E   25216.97140831 -.00000094  00000+0  57330-4 0  9996
2 37743  51.9958  78.4266 0000944  60.9924  77.1669 12.62267360650005
GLOBALSTAR M089         
1 37744U 11033F   25216.85289812 -.00000094  00000+0  53965-4 0  9997
2 37744  51.9943  33.0041 0001008  98.4927  41.9532 12.62265626650831
